ONEWEB-0321             
1 49191U 21083F   26044.11130036  .00000097  00000+0  20619-3 0  9995
2 49191  87.9214 299.2006 0001561  90.2805 269.8507 13.20770399220453
ONEWEB-0322             
1 49192U 21083G   26043.83355243  .00000078  00000+0  17972-3 0  9990
2 49192  87.9015 344.9675 0001360  92.5310 267.5975 13.13471401214592
ONEWEB-0324             
1 49193U 21083H   26043.85007296 -.00000154  00000+0 -42295-3 0  9998
2 49193  87.9233   0.1311 0002000  84.9321 275.2040 13.18685969213614
ONEWEB-0325             
1 49194U 21083J   26043.92924619 -.00000028  00000+0 -10372-3 0  9995
2 49194  87.9219   0.1348 0001841  80.5690 279.5651 13.18683844213639
ONEWEB-0326             
1 49195U 21083K   26043.86836171 -.00000071  00000+0 -21298-3 0  9991
2 49195  87.9230   0.1340 0001950  75.1665 284.9683 13.18686779213611
ONEWEB-0327             
1 49196U 21083L   26043.94396262 -.00000123  00000+0 -34571-3 0  9999
2 49196  87.9221   0.1342 0001839  72.7375 287.3958 13.18686025213640
ONEWEB-0328             
1 49197U 21083M   26043.82340051  .00000307  00000+0  80622-3 0  9992
2 49197  87.9045 344.9243 0001934  83.1112 277.0237 13.13472063214574
ONEWEB-0331             
1 49198U 21083N   26043.86161864 -.00000092  00000+0 -26625-3 0  9996
2 49198  87.9234   0.1286 0002144  72.1433 287.9933 13.18687159213628
ONEWEB-0333             
1 49199U 21083P   26043.89449549  .00000296  00000+0  77661-3 0  9999
2 49199  87.9027 344.9525 0001754  81.1339 278.9989 13.13472247214598
ONEWEB-0334             
1 49200U 21083Q   26044.12865745  .00000075  00000+0  15288-3 0  9991
2 49200  87.9198 299.2187 0000959 112.2112 247.9123 13.20769883220414
ONEWEB-0335             
1 49201U 21083R   26043.88942684  .00000306  00000+0  80347-3 0  9997
2 49201  87.9031 344.9457 0001981  76.3305 283.8044 13.13471054214606
ONEWEB-0336             
1 49202U 21083S   26043.86064641 -.00000328  00000+0 -93223-3 0  9997
2 49202  87.9033 344.9474 0002186  76.1898 283.9474 13.13471761214592
ONEWEB-0337             
1 49203U 21083T   26043.87066892 -.00000182  00000+0 -53214-3 0  9993
2 49203  87.9024 344.9570 0002041  80.3606 279.7754 13.13469831214593
ONEWEB-0338             
1 49204U 21083U   26044.17918072  .00000053  00000+0  97507-4 0  9993
2 49204  87.9204 299.2124 0001379  90.5780 269.5511 13.20773214220440
ONEWEB-0339             
1 49205U 21083V   26043.87928024  .00000049  00000+0  99783-4 0  9991
2 49205  87.9035 344.9401 0001673  86.2571 273.8749 13.13470818214570
ONEWEB-0340             
1 49206U 21083W   26043.84842105  .00000009  00000+0 -87058-5 0  9994
2 49206  87.9216   0.1385 0001954  77.6410 282.4941 13.18684405213586
ONEWEB-0341             
1 49207U 21083X   26043.85502521 -.00000177  00000+0 -48175-3 0  9993
2 49207  87.9227   0.1458 0002352  87.4159 272.7242 13.18687005213600
