[{"OBJECT_NAME":"ONEWEB-0321","OBJECT_ID":"2021-083F","EPOCH":"2026-02-13T02:40:16.351104","MEAN_MOTION":13.20770399,"ECCENTRICITY":0.0001561,"INCLINATION":87.9214,"RA_OF_ASC_NODE":299.2006,"ARG_OF_PERICENTER":90.2805,"MEAN_ANOMALY":269.8507,"EPHEMERIS_TYPE":0,"CLASSIFICATION_TYPE":"U","NORAD_CAT_ID":49191,"ELEMENT_SET_NO":999,"REV_AT_EPOCH":22045,"BSTAR":0.00020619,"MEAN_MOTION_DOT":9.7e-7,"MEAN_MOTION_DDOT":0},{"OBJECT_NAME":"ONEWEB-0322","OBJECT_ID":"2021-083G","EPOCH":"2026-02-12T20:00:18.929952","MEAN_MOTION":13.13471401,"ECCENTRICITY":0.00013606,"INCLINATION":87.9015,"RA_OF_ASC_NODE":344.9675,"ARG_OF_PERICENTER":92.531,"MEAN_ANOMALY":267.5975,"EPHEMERIS_TYPE":0,"CLASSIFICATION_TYPE":"U","NORAD_CAT_ID":49192,"ELEMENT_SET_NO":999,"REV_AT_EPOCH":21459,"BSTAR":0.00017971774,"MEAN_MOTION_DOT":7.8e-7,"MEAN_MOTION_DDOT":0},{"OBJECT_NAME":"ONEWEB-0324","OBJECT_ID":"2021-083H","EPOCH":"2026-02-12T20:24:06.303744","MEAN_MOTION":13.18685969,"ECCENTRICITY":0.00020001,"INCLINATION":87.9233,"RA_OF_ASC_NODE":0.1311,"ARG_OF_PERICENTER":84.9321,"MEAN_ANOMALY":275.204,"EPHEMERIS_TYPE":0,"CLASSIFICATION_TYPE":"U","NORAD_CAT_ID":49193,"ELEMENT_SET_NO":999,"REV_AT_EPOCH":21361,"BSTAR":-0.00042295199,"MEAN_MOTION_DOT":-1.54e-6,"MEAN_MOTION_DDOT":0},{"OBJECT_NAME":"ONEWEB-0325","OBJECT_ID":"2021-083J","EPOCH":"2026-02-12T22:18:06.870816","MEAN_MOTION":13.18683844,"ECCENTRICITY":0.0001841,"INCLINATION":87.9219,"RA_OF_ASC_NODE":0.1348,"ARG_OF_PERICENTER":80.569,"MEAN_ANOMALY":279.5651,"EPHEMERIS_TYPE":0,"CLASSIFICATION_TYPE":"U","NORAD_CAT_ID":49194,"ELEMENT_SET_NO":999,"REV_AT_EPOCH":21363,"BSTAR":-0.00010372,"MEAN_MOTION_DOT":-2.8e-7,"MEAN_MOTION_DDOT":0},{"OBJECT_NAME":"ONEWEB-0326","OBJECT_ID":"2021-083K","EPOCH":"2026-02-12T20:50:26.451744","MEAN_MOTION":13.18686779,"ECCENTRICITY":0.000195,"INCLINATION":87.923,"RA_OF_ASC_NODE":0.134,"ARG_OF_PERICENTER":75.1665,"MEAN_ANOMALY":284.9683,"EPHEMERIS_TYPE":0,"CLASSIFICATION_TYPE":"U","NORAD_CAT_ID":49195,"ELEMENT_SET_NO":999,"REV_AT_EPOCH":21361,"BSTAR":-0.00021298,"MEAN_MOTION_DOT":-7.1e-7,"MEAN_MOTION_DDOT":0},{"OBJECT_NAME":"ONEWEB-0327","OBJECT_ID":"2021-083L","EPOCH":"2026-02-12T22:39:18.370368","MEAN_MOTION":13.18686025,"ECCENTRICITY":0.0001839,"INCLINATION":87.9221,"RA_OF_ASC_NODE":0.1342,"ARG_OF_PERICENTER":72.7375,"MEAN_ANOMALY":287.3958,"EPHEMERIS_TYPE":0,"CLASSIFICATION_TYPE":"U","NORAD_CAT_ID":49196,"ELEMENT_SET_NO":999,"REV_AT_EPOCH":21364,"BSTAR":-0.00034571,"MEAN_MOTION_DOT":-1.23e-6,"MEAN_MOTION_DDOT":0},{"OBJECT_NAME":"ONEWEB-0328","OBJECT_ID":"2021-083M","EPOCH":"2026-02-12T19:45:41.804064","MEAN_MOTION":13.13472063,"ECCENTRICITY":0.00019341,"INCLINATION":87.9045,"RA_OF_ASC_NODE":344.9243,"ARG_OF_PERICENTER":83.1112,"MEAN_ANOMALY":277.0237,"EPHEMERIS_TYPE":0,"CLASSIFICATION_TYPE":"U","NORAD_CAT_ID":49197,"ELEMENT_SET_NO":999,"REV_AT_EPOCH":21457,"BSTAR":0.0008062209,"MEAN_MOTION_DOT":3.07e-6,"MEAN_MOTION_DDOT":0},{"OBJECT_NAME":"ONEWEB-0331","OBJECT_ID":"2021-083N","EPOCH":"2026-02-12T20:40:43.850496","MEAN_MOTION":13.18687159,"ECCENTRICITY":0.0002144,"INCLINATION":87.9234,"RA_OF_ASC_NODE":0.1286,"ARG_OF_PERICENTER":72.1433,"MEAN_ANOMALY":287.9933,"EPHEMERIS_TYPE":0,"CLASSIFICATION_TYPE":"U","NORAD_CAT_ID":49198,"ELEMENT_SET_NO":999,"REV_AT_EPOCH":21362,"BSTAR":-0.00026625,"MEAN_MOTION_DOT":-9.2e-7,"MEAN_MOTION_DDOT":0},{"OBJECT_NAME":"ONEWEB-0333","OBJECT_ID":"2021-083P","EPOCH":"2026-02-12T21:28:04.410336","MEAN_MOTION":13.13472247,"ECCENTRICITY":0.0001754,"INCLINATION":87.9027,"RA_OF_ASC_NODE":344.9525,"ARG_OF_PERICENTER":81.1339,"MEAN_ANOMALY":278.9989,"EPHEMERIS_TYPE":0,"CLASSIFICATION_TYPE":"U","NORAD_CAT_ID":49199,"ELEMENT_SET_NO":999,"REV_AT_EPOCH":21459,"BSTAR":0.00077661,"MEAN_MOTION_DOT":2.96e-6,"MEAN_MOTION_DDOT":0},{"OBJECT_NAME":"ONEWEB-0334","OBJECT_ID":"2021-083Q","EPOCH":"2026-02-13T03:05:16.003680","MEAN_MOTION":13.20769883,"ECCENTRICITY":9.59e-5,"INCLINATION":87.9198,"RA_OF_ASC_NODE":299.2187,"ARG_OF_PERICENTER":112.2112,"MEAN_ANOMALY":247.9123,"EPHEMERIS_TYPE":0,"CLASSIFICATION_TYPE":"U","NORAD_CAT_ID":49200,"ELEMENT_SET_NO":999,"REV_AT_EPOCH":22041,"BSTAR":0.00015288,"MEAN_MOTION_DOT":7.5e-7,"MEAN_MOTION_DDOT":0},{"OBJECT_NAME":"ONEWEB-0335","OBJECT_ID":"2021-083R","EPOCH":"2026-02-12T21:20:46.478976","MEAN_MOTION":13.13471054,"ECCENTRICITY":0.0001981,"INCLINATION":87.9031,"RA_OF_ASC_NODE":344.9457,"ARG_OF_PERICENTER":76.3305,"MEAN_ANOMALY":283.8044,"EPHEMERIS_TYPE":0,"CLASSIFICATION_TYPE":"U","NORAD_CAT_ID":49201,"ELEMENT_SET_NO":999,"REV_AT_EPOCH":21460,"BSTAR":0.00080347,"MEAN_MOTION_DOT":3.06e-6,"MEAN_MOTION_DDOT":0},{"OBJECT_NAME":"ONEWEB-0336","OBJECT_ID":"2021-083S","EPOCH":"2026-02-12T20:39:19.849824","MEAN_MOTION":13.13471761,"ECCENTRICITY":0.0002186,"INCLINATION":87.9033,"RA_OF_ASC_NODE":344.9474,"ARG_OF_PERICENTER":76.1898,"MEAN_ANOMALY":283.9474,"EPHEMERIS_TYPE":0,"CLASSIFICATION_TYPE":"U","NORAD_CAT_ID":49202,"ELEMENT_SET_NO":999,"REV_AT_EPOCH":21459,"BSTAR":-0.00093223,"MEAN_MOTION_DOT":-3.28e-6,"MEAN_MOTION_DDOT":0},{"OBJECT_NAME":"ONEWEB-0337","OBJECT_ID":"2021-083T","EPOCH":"2026-02-12T20:53:45.794688","MEAN_MOTION":13.13469831,"ECCENTRICITY":0.0002041,"INCLINATION":87.9024,"RA_OF_ASC_NODE":344.957,"ARG_OF_PERICENTER":80.3606,"MEAN_ANOMALY":279.7754,"EPHEMERIS_TYPE":0,"CLASSIFICATION_TYPE":"U","NORAD_CAT_ID":49203,"ELEMENT_SET_NO":999,"REV_AT_EPOCH":21459,"BSTAR":-0.00053214,"MEAN_MOTION_DOT":-1.82e-6,"MEAN_MOTION_DDOT":0},{"OBJECT_NAME":"ONEWEB-0338","OBJECT_ID":"2021-083U","EPOCH":"2026-02-13T04:18:01.214208","MEAN_MOTION":13.20773214,"ECCENTRICITY":0.0001379,"INCLINATION":87.9204,"RA_OF_ASC_NODE":299.2124,"ARG_OF_PERICENTER":90.578,"MEAN_ANOMALY":269.5511,"EPHEMERIS_TYPE":0,"CLASSIFICATION_TYPE":"U","NORAD_CAT_ID":49204,"ELEMENT_SET_NO":999,"REV_AT_EPOCH":22044,"BSTAR":9.7507e-5,"MEAN_MOTION_DOT":5.3e-7,"MEAN_MOTION_DDOT":0},{"OBJECT_NAME":"ONEWEB-0339","OBJECT_ID":"2021-083V","EPOCH":"2026-02-12T21:06:09.812736","MEAN_MOTION":13.13470818,"ECCENTRICITY":0.0001673,"INCLINATION":87.9035,"RA_OF_ASC_NODE":344.9401,"ARG_OF_PERICENTER":86.2571,"MEAN_ANOMALY":273.8749,"EPHEMERIS_TYPE":0,"CLASSIFICATION_TYPE":"U","NORAD_CAT_ID":49205,"ELEMENT_SET_NO":999,"REV_AT_EPOCH":21457,"BSTAR":9.9783e-5,"MEAN_MOTION_DOT":4.9e-7,"MEAN_MOTION_DDOT":0},{"OBJECT_NAME":"ONEWEB-0340","OBJECT_ID":"2021-083W","EPOCH":"2026-02-12T20:21:43.578720","MEAN_MOTION":13.18684405,"ECCENTRICITY":0.00019543,"INCLINATION":87.9216,"RA_OF_ASC_NODE":0.1385,"ARG_OF_PERICENTER":77.641,"MEAN_ANOMALY":282.4941,"EPHEMERIS_TYPE":0,"CLASSIFICATION_TYPE":"U","NORAD_CAT_ID":49206,"ELEMENT_SET_NO":999,"REV_AT_EPOCH":21358,"BSTAR":-8.705845e-6,"MEAN_MOTION_DOT":9.0e-8,"MEAN_MOTION_DDOT":0},{"OBJECT_NAME":"ONEWEB-0341","OBJECT_ID":"2021-083X","EPOCH":"2026-02-12T20:31:14.178144","MEAN_MOTION":13.18687005,"ECCENTRICITY":0.0002352,"INCLINATION":87.9227,"RA_OF_ASC_NODE":0.1458,"ARG_OF_PERICENTER":87.4159,"MEAN_ANOMALY":272.7242,"EPHEMERIS_TYPE":0,"CLASSIFICATION_TYPE":"U","NORAD_CAT_ID":49207,"ELEMENT_SET_NO":999,"REV_AT_EPOCH":21360,"BSTAR":-0.00048174947,"MEAN_MOTION_DOT":-1.77e-6,"MEAN_MOTION_DDOT":0}]
